[Satellite]
VERSION=1.1
NAME=ZHONGXING-20
NICKNAME=ZHONGXING-20
TLE1=1 28082U 03052A   17186.28504272 -.00000332  00000-0  00000-0 0  9992
TLE2=2 28082   3.5416  71.2315 0001782  15.7887  42.2889  1.00267878 49986
